{
    "links": {
        "self": "http://www.neowsapp.com/rest/v1/neo/54093094?api_key=iIulBulltgU6a56xZRHN4H3l9WmuAYTsLGpBGhQ2"
    },
    "id": "54093094",
    "neo_reference_id": "54093094",
    "name": "(2020 WY3)",
    "designation": "2020 WY3",
    "nasa_jpl_url": "http://ssd.jpl.nasa.gov/sbdb.cgi?sstr=54093094",
    "absolute_magnitude_h": 27.741,
    "estimated_diameter": {
        "kilometers": {
            "estimated_diameter_min": 0.0075223749,
            "estimated_diameter_max": 0.0168205417
        },
        "meters": {
            "estimated_diameter_min": 7.5223749454,
            "estimated_diameter_max": 16.8205417301
        },
        "miles": {
            "estimated_diameter_min": 0.0046741856,
            "estimated_diameter_max": 0.0104517968
        },
        "feet": {
            "estimated_diameter_min": 24.6797086158,
            "estimated_diameter_max": 55.1855061298
        }
    },
    "is_potentially_hazardous_asteroid": false,
    "close_approach_data": [
        {
            "close_approach_date": "1957-03-11",
            "close_approach_date_full": "1957-Mar-11 03:01",
            "epoch_date_close_approach": -404254740000,
            "relative_velocity": {
                "kilometers_per_second": "22.0686052317",
                "kilometers_per_hour": "79446.9788340966",
                "miles_per_hour": "49365.2630427752"
            },
            "miss_distance": {
                "astronomical": "0.4892098602",
                "lunar": "190.3026356178",
                "kilometers": "73184753.068917774",
                "miles": "45474896.8580383212"
            },
            "orbiting_body": "Earth"
        },
        {
            "close_approach_date": "2020-09-19",
            "close_approach_date_full": "2020-Sep-19 02:39",
            "epoch_date_close_approach": 1600483140000,
            "relative_velocity": {
                "kilometers_per_second": "12.832507648",
                "kilometers_per_hour": "46197.0275329066",
                "miles_per_hour": "28705.0363578774"
            },
            "miss_distance": {
                "astronomical": "0.0474608542",
                "lunar": "18.4622722838",
                "kilometers": "7100042.696700554",
                "miles": "4411761.9556094852"
            },
            "orbiting_body": "Mars"
        },
        {
            "close_approach_date": "2020-11-30",
            "close_approach_date_full": "2020-Nov-30 06:51",
            "epoch_date_close_approach": 1606719060000,
            "relative_velocity": {
                "kilometers_per_second": "7.4675702042",
                "kilometers_per_hour": "26883.2527351967",
                "miles_per_hour": "16704.2077898226"
            },
            "miss_distance": {
                "astronomical": "0.0152592923",
                "lunar": "5.9358647047",
                "kilometers": "2282757.625787401",
                "miles": "1418439.8147360938"
            },
            "orbiting_body": "Earth"
        }
    ],
    "orbital_data": {
        "orbit_id": "2",
        "orbit_determination_date": "2020-11-29 05:18:57",
        "first_observation_date": "2020-11-23",
        "last_observation_date": "2020-11-29",
        "data_arc_in_days": 6,
        "observations_used": 25,
        "orbit_uncertainty": "8",
        "minimum_orbit_intersection": ".0066484",
        "jupiter_tisserand_invariant": "4.163",
        "epoch_osculation": "2459177.5",
        "eccentricity": ".4262789927908077",
        "semi_major_axis": "1.655928485356946",
        "inclination": ".6521133921209962",
        "ascending_node_longitude": "36.23418581838352",
        "orbital_period": "778.3246630558825",
        "perihelion_distance": ".9500409584853791",
        "perihelion_argument": "64.55917607214845",
        "aphelion_distance": "2.361816012228512",
        "perihelion_time": "2459209.698587180162",
        "mean_anomaly": "345.1071256828128",
        "mean_motion": ".4625319189893801",
        "equinox": "J2000",
        "orbit_class": {
            "orbit_class_type": "APO",
            "orbit_class_description": "Near-Earth asteroid orbits which cross the Earth’s orbit similar to that of 1862 Apollo",
            "orbit_class_range": "a (semi-major axis) > 1.0 AU; q (perihelion) < 1.017 AU"
        }
    },
    "is_sentry_object": false
}